[{"OBJECT_NAME":"STARLINK-3744","OBJECT_ID":"2022-041AV","EPOCH":"2026-03-09T09:05:36.277440","MEAN_MOTION":15.0883816,"ECCENTRICITY":0.00013952,"INCLINATION":53.218,"RA_OF_ASC_NODE":90.514,"ARG_OF_PERICENTER":81.2981,"MEAN_ANOMALY":278.8169,"EPHEMERIS_TYPE":0,"CLASSIFICATION_TYPE":"U","NORAD_CAT_ID":52304,"ELEMENT_SET_NO":999,"REV_AT_EPOCH":21459,"BSTAR":3.4823403e-5,"MEAN_MOTION_DOT":2.66e-6,"MEAN_MOTION_DDOT":0},{"OBJECT_NAME":"CZ-6A DEB","OBJECT_ID":"2024-140YJ","EPOCH":"2026-03-09T12:57:52.080768","MEAN_MOTION":14.93904112,"ECCENTRICITY":0.01017322,"INCLINATION":88.9655,"RA_OF_ASC_NODE":277.0683,"ARG_OF_PERICENTER":120.9079,"MEAN_ANOMALY":240.2204,"EPHEMERIS_TYPE":0,"CLASSIFICATION_TYPE":"U","NORAD_CAT_ID":61417,"ELEMENT_SET_NO":999,"REV_AT_EPOCH":8080,"BSTAR":0.0018816098,"MEAN_MOTION_DOT":0.00022222,"MEAN_MOTION_DDOT":0}]
